{"type": "FeatureCollection", "features": [ {"type": "Feature", "properties": {"norad_id": 28659, "name": "DIRECTV 8", "group": "intelsat", "lat": -0.021484228383701145, "lon": -146.23127303225556, "alt_km": 35777.191354114606, "timestamp": "2025-12-09T16:56:36.247812+00:00", "meta": {"OBJECT_NAME": "DIRECTV 8", "OBJECT_ID": "2005-019A", "EPOCH": "2025-12-09T12:12:55.941120", "MEAN_MOTION": 1.00271942, "ECCENTRICITY": 0.0003183, "INCLINATION": 0.0171, "RA_OF_ASC_NODE": 5.5935, "ARG_OF_PERICENTER": 257.2096, "MEAN_ANOMALY": 239.8843, "EPHEMERIS_TYPE": 0, "CLASSIFICATION_TYPE": "U", "NORAD_CAT_ID": 28659, "ELEMENT_SET_NO": 999, "REV_AT_EPOCH": 7517, "BSTAR": 0, "MEAN_MOTION_DOT": 3e-08, "MEAN_MOTION_DDOT": 0}, "tle": {"line1": "1 28659U 05019A   25343.50898080  .00000003  00000+0  00000+0 0  9991", "line2": "2 28659   0.0171   5.5935 0003183 257.2096 239.8843  1.00271942 75177"}}, "geometry": {"type": "Point", "coordinates": [-146.23127303225556, -0.021484228383701145]}}, {"type": "Feature", "properties": {"norad_id": 28702, "name": "GALAXY 28 (G-28)", "group": "intelsat", "lat": 0.8094440626300264, "lon": -115.83026425484019, "alt_km": 35775.311026424366, "timestamp": "2025-12-09T16:56:36.247824+00:00", "meta": {"OBJECT_NAME": "GALAXY 28 (G-28)", "OBJECT_ID": "2005-022A", "EPOCH": "2025-12-09T12:29:48.391872", "MEAN_MOTION": 1.00271081, "ECCENTRICITY": 0.0002686, "INCLINATION": 2.8104, "RA_OF_ASC_NODE": 81.3192, "ARG_OF_PERICENTER": 179.8142, "MEAN_ANOMALY": 276.1436, "EPHEMERIS_TYPE": 0, "CLASSIFICATION_TYPE": "U", "NORAD_CAT_ID": 28702, "ELEMENT_SET_NO": 999, "REV_AT_EPOCH": 5007, "BSTAR": 0, "MEAN_MOTION_DOT": -1.85e-06, "MEAN_MOTION_DDOT": 0}, "tle": {"line1": "1 28702U 05022A   25343.52069898 -.00000185  00000+0  00000+0 0  9995", "line2": "2 28702   2.8104  81.3192 0002686 179.8142 276.1436  1.00271081 50075"}}, "geometry": {"type": "Point", "coordinates": [-115.83026425484019, 0.8094440626300264]}}, {"type": "Feature", "properties": {"norad_id": 29236, "name": "GALAXY 16 (G-16)", "group": "intelsat", "lat": -0.00367598836815108, "lon": -126.1807723523456, "alt_km": 35774.58567109758, "timestamp": "2025-12-09T16:56:36.247837+00:00", "meta": {"OBJECT_NAME": "GALAXY 16 (G-16)", "OBJECT_ID": "2006-023A", "EPOCH": "2025-12-09T10:14:01.469760", "MEAN_MOTION": 1.00272226, "ECCENTRICITY": 0.0002832, "INCLINATION": 0.0146, "RA_OF_ASC_NODE": 104.6172, "ARG_OF_PERICENTER": 147.4625, "MEAN_ANOMALY": 240.8321, "EPHEMERIS_TYPE": 0, "CLASSIFICATION_TYPE": "U", "NORAD_CAT_ID": 29236, "ELEMENT_SET_NO": 999, "REV_AT_EPOCH": 7107, "BSTAR": 0, "MEAN_MOTION_DOT": -1.25e-06, "MEAN_MOTION_DDOT": 0}, "tle": {"line1": "1 29236U 06023A   25343.42640590 -.00000125  00000+0  00000+0 0  9997", "line2": "2 29236   0.0146 104.6172 0002832 147.4625 240.8321  1.00272226 71077"}}, "geometry": {"type": "Point", "coordinates": [-126.1807723523456, -0.00367598836815108]}}, {"type": "Feature", "properties": {"norad_id": 29494, "name": "DIRECTV 9S", "group": "intelsat", "lat": 0.9945156247356816, "lon": -128.37602384998397, "alt_km": 35774.63728207519, "timestamp": "2025-12-09T16:56:36.247865+00:00", "meta": {"OBJECT_NAME": "DIRECTV 9S", "OBJECT_ID": "2006-043A", "EPOCH": "2025-12-09T10:12:41.738976", "MEAN_MOTION": 1.00270713, "ECCENTRICITY": 0.0003164, "INCLINATION": 1.9317, "RA_OF_ASC_NODE": 83.2413, "ARG_OF_PERICENTER": 178.2098, "MEAN_ANOMALY": 228.9243, "EPHEMERIS_TYPE": 0, "CLASSIFICATION_TYPE": "U", "NORAD_CAT_ID": 29494, "ELEMENT_SET_NO": 999, "REV_AT_EPOCH": 4948, "BSTAR": 0, "MEAN_MOTION_DOT": -1.11e-06, "MEAN_MOTION_DDOT": 0}, "tle": {"line1": "1 29494U 06043A   25343.42548309 -.00000111  00000+0  00000+0 0  9995", "line2": "2 29494   1.9317  83.2413 0003164 178.2098 228.9243  1.00270713 49487"}}, "geometry": {"type": "Point", "coordinates": [-128.37602384998397, 0.9945156247356816]}}, {"type": "Feature", "properties": {"norad_id": 31307, "name": "GALAXY 17 (G-17)", "group": "intelsat", "lat": 0.6019615180027565, "lon": -112.13204177977826, "alt_km": 35760.19874441171, "timestamp": "2025-12-09T16:56:36.247879+00:00", "meta": {"OBJECT_NAME": "GALAXY 17 (G-17)", "OBJECT_ID": "2007-016B", "EPOCH": "2025-12-09T12:27:47.151072", "MEAN_MOTION": 1.00272575, "ECCENTRICITY": 0.0006058, "INCLINATION": 2.4919, "RA_OF_ASC_NODE": 82.3182, "ARG_OF_PERICENTER": 162.3451, "MEAN_ANOMALY": 295.7984, "EPHEMERIS_TYPE": 0, "CLASSIFICATION_TYPE": "U", "NORAD_CAT_ID": 31307, "ELEMENT_SET_NO": 999, "REV_AT_EPOCH": 6790, "BSTAR": 0, "MEAN_MOTION_DOT": -2.04e-06, "MEAN_MOTION_DDOT": 0}, "tle": {"line1": "1 31307U 07016B   25343.51929573 -.00000204  00000+0  00000+0 0  9991", "line2": "2 31307   2.4919  82.3182 0006058 162.3451 295.7984  1.00272575 67901"}}, "geometry": {"type": "Point", "coordinates": [-112.13204177977826, 0.6019615180027565]}}, {"type": "Feature", "properties": {"norad_id": 31862, "name": "DIRECTV 10", "group": "intelsat", "lat": 0.005959113039531452, "lon": -129.93766047137322, "alt_km": 35782.76416223112, "timestamp": "2025-12-09T16:56:36.247892+00:00", "meta": {"OBJECT_NAME": "DIRECTV 10", "OBJECT_ID": "2007-032A", "EPOCH": "2025-12-09T10:42:05.907744", "MEAN_MOTION": 1.0027488, "ECCENTRICITY": 5.82e-05, "INCLINATION": 0.0139, "RA_OF_ASC_NODE": 161.9453, "ARG_OF_PERICENTER": 71.8294, "MEAN_ANOMALY": 262.4057, "EPHEMERIS_TYPE": 0, "CLASSIFICATION_TYPE": "U", "NORAD_CAT_ID": 31862, "ELEMENT_SET_NO": 999, "REV_AT_EPOCH": 4369, "BSTAR": 0, "MEAN_MOTION_DOT": -1.01e-06, "MEAN_MOTION_DDOT": 0}, "tle": {"line1": "1 31862U 07032A   25343.44590171 -.00000101  00000+0  00000+0 0  9991", "line2": "2 31862   0.0139 161.9453 0000582  71.8294 262.4057  1.00274880 43698"}}, "geometry": {"type": "Point", "coordinates": [-129.93766047137322, 0.005959113039531452]}}, {"type": "Feature", "properties": {"norad_id": 32253, "name": "INTELSAT 11 (IS-11)", "group": "intelsat", "lat": 2.310575678281315, "lon": -148.13349349601597, "alt_km": 36100.17778396015, "timestamp": "2025-12-09T16:56:36.247904+00:00", "meta": {"OBJECT_NAME": "INTELSAT 11 (IS-11)", "OBJECT_ID": "2007-044B", "EPOCH": "2025-12-09T12:12:30.435840", "MEAN_MOTION": 0.99047745, "ECCENTRICITY": 0.0009106, "INCLINATION": 3.0719, "RA_OF_ASC_NODE": 81.01, "ARG_OF_PERICENTER": 164.5646, "MEAN_ANOMALY": 255.9589, "EPHEMERIS_TYPE": 0, "CLASSIFICATION_TYPE": "U", "NORAD_CAT_ID": 32253, "ELEMENT_SET_NO": 999, "REV_AT_EPOCH": 6657, "BSTAR": 0, "MEAN_MOTION_DOT": 7.3e-07, "MEAN_MOTION_DDOT": 0}, "tle": {"line1": "1 32253U 07044B   25343.50868560  .00000073  00000+0  00000+0 0  9993", "line2": "2 32253   3.0719  81.0100 0009106 164.5646 255.9589  0.99047745 66577"}}, "geometry": {"type": "Point", "coordinates": [-148.13349349601597, 2.310575678281315]}}, {"type": "Feature", "properties": {"norad_id": 32388, "name": "HORIZONS-2", "group": "intelsat", "lat": 0.12464808794433846, "lon": -100.94767833843015, "alt_km": 35765.577604834245, "timestamp": "2025-12-09T16:56:36.247916+00:00", "meta": {"OBJECT_NAME": "HORIZONS-2", "OBJECT_ID": "2007-063B", "EPOCH": "2025-12-09T12:34:03.796320", "MEAN_MOTION": 1.00270503, "ECCENTRICITY": 0.000502, "INCLINATION": 2.1132, "RA_OF_ASC_NODE": 82.9918, "ARG_OF_PERICENTER": 187.0359, "MEAN_ANOMALY": 283.219, "EPHEMERIS_TYPE": 0, "CLASSIFICATION_TYPE": "U", "NORAD_CAT_ID": 32388, "ELEMENT_SET_NO": 999, "REV_AT_EPOCH": 6591, "BSTAR": 0, "MEAN_MOTION_DOT": -2.51e-06, "MEAN_MOTION_DDOT": 0}, "tle": {"line1": "1 32388U 07063B   25343.52365505 -.00000251  00000+0  00000+0 0  9995", "line2": "2 32388   2.1132  82.9918 0005020 187.0359 283.2190  1.00270503 65916"}}, "geometry": {"type": "Point", "coordinates": [-100.94767833843015, 0.12464808794433846]}}, {"type": "Feature", "properties": {"norad_id": 32729, "name": "DIRECTV 11", "group": "intelsat", "lat": -0.011377098194242045, "lon": -126.35105908489541, "alt_km": 35784.53916050401, "timestamp": "2025-12-09T16:56:36.247928+00:00", "meta": {"OBJECT_NAME": "DIRECTV 11", "OBJECT_ID": "2008-013A", "EPOCH": "2025-12-09T10:14:01.461984", "MEAN_MOTION": 1.0027202, "ECCENTRICITY": 4.14e-05, "INCLINATION": 0.0295, "RA_OF_ASC_NODE": 191.9729, "ARG_OF_PERICENTER": 10.0555, "MEAN_ANOMALY": 290.7006, "EPHEMERIS_TYPE": 0, "CLASSIFICATION_TYPE": "U", "NORAD_CAT_ID": 32729, "ELEMENT_SET_NO": 999, "REV_AT_EPOCH": 4369, "BSTAR": 0, "MEAN_MOTION_DOT": -1.23e-06, "MEAN_MOTION_DDOT": 0}, "tle": {"line1": "1 32729U 08013A   25343.42640581 -.00000123  00000+0  00000+0 0  9997", "line2": "2 32729   0.0295 191.9729 0000414  10.0555 290.7006  1.00272020 43694"}}, "geometry": {"type": "Point", "coordinates": [-126.35105908489541, -0.011377098194242045]}}, {"type": "Feature", "properties": {"norad_id": 32951, "name": "GALAXY 18 (G-18)", "group": "intelsat", "lat": -0.024559097782789762, "lon": -150.19598359212378, "alt_km": 35777.48311436692, "timestamp": "2025-12-09T16:56:36.247940+00:00", "meta": {"OBJECT_NAME": "GALAXY 18 (G-18)", "OBJECT_ID": "2008-024A", "EPOCH": "2025-12-09T12:07:22.423296", "MEAN_MOTION": 1.002726, "ECCENTRICITY": 0.0003171, "INCLINATION": 0.012, "RA_OF_ASC_NODE": 294.9062, "ARG_OF_PERICENTER": 326.3932, "MEAN_ANOMALY": 236.0303, "EPHEMERIS_TYPE": 0, "CLASSIFICATION_TYPE": "U", "NORAD_CAT_ID": 32951, "ELEMENT_SET_NO": 999, "REV_AT_EPOCH": 4395, "BSTAR": 0, "MEAN_MOTION_DOT": 2.7e-07, "MEAN_MOTION_DDOT": 0}, "tle": {"line1": "1 32951U 08024A   25343.50512064  .00000027  00000+0  00000+0 0  9991", "line2": "2 32951   0.0120 294.9062 0003171 326.3932 236.0303  1.00272600 43953"}}, "geometry": {"type": "Point", "coordinates": [-150.19598359212378, -0.024559097782789762]}}]}